{
  "type": "FeatureCollection",
  "features": [
    {
      "type": "Feature",
      "properties": {
        "norad_id": 43246,
        "name": "BEIDOU-3 M10 (C30)",
        "group": "gnss",
        "lat": -53.641422673904856,
        "lon": -157.0322161494147,
        "alt_km": 21536.275170097466,
        "timestamp": "2025-12-22T14:45:57.645237+00:00",
        "meta_object_name": "BEIDOU-3 M10 (C30)",
        "meta_object_id": "2018-029B",
        "meta_epoch": "2025-12-21T16:29:26.843136",
        "meta_mean_motion": 1.8622925,
        "meta_eccentricity": 0.00042885,
        "meta_inclination": 54.3548,
        "meta_ra_of_asc_node": 306.183,
        "meta_arg_of_pericenter": 3.3275,
        "meta_mean_anomaly": 356.674,
        "meta_ephemeris_type": 0,
        "meta_classification_type": "U",
        "meta_norad_cat_id": 43246,
        "meta_element_set_no": 999,
        "meta_rev_at_epoch": 5257,
        "meta_bstar": 0,
        "meta_mean_motion_dot": -6e-07,
        "meta_mean_motion_ddot": 0,
        "tle_line1": "1 43246U 18029B   25355.68711624 -.00000060  00000+0  00000+0 0  9999",
        "tle_line2": "2 43246  54.3548 306.1830 0004288   3.3275 356.6740  1.86229250 52578"
      },
      "geometry": {
        "type": "Point",
        "coordinates": [
          -157.0322161494147,
          -53.641422673904856
        ]
      }
    },
    {
      "type": "Feature",
      "properties": {
        "norad_id": 43286,
        "name": "IRNSS-1I",
        "group": "gnss",
        "lat": -27.05587407360902,
        "lon": 10.912404392068591,
        "alt_km": 35811.01215233662,
        "timestamp": "2025-12-22T14:45:57.645254+00:00",
        "meta_object_name": "IRNSS-1I",
        "meta_object_id": "2018-035A",
        "meta_epoch": "2025-12-20T19:47:21.482880",
        "meta_mean_motion": 1.00273791,
        "meta_eccentricity": 0.0021634,
        "meta_inclination": 29.167,
        "meta_ra_of_asc_node": 76.974,
        "meta_arg_of_pericenter": 186.9634,
        "meta_mean_anomaly": 177.5378,
        "meta_ephemeris_type": 0,
        "meta_classification_type": "U",
        "meta_norad_cat_id": 43286,
        "meta_element_set_no": 999,
        "meta_rev_at_epoch": 2829,
        "meta_bstar": 0,
        "meta_mean_motion_dot": 8.3e-07,
        "meta_mean_motion_ddot": 0,
        "tle_line1": "1 43286U 18035A   25354.82455420  .00000083  00000+0  00000+0 0  9998",
        "tle_line2": "2 43286  29.1670  76.9740 0021634 186.9634 177.5378  1.00273791 28295"
      },
      "geometry": {
        "type": "Point",
        "coordinates": [
          10.912404392068591,
          -27.05587407360902
        ]
      }
    },
    {
      "type": "Feature",
      "properties": {
        "norad_id": 43508,
        "name": "COSMOS 2527 (756)",
        "group": "gnss",
        "lat": -18.90506563574005,
        "lon": 70.83621136499634,
        "alt_km": 19141.303759860984,
        "timestamp": "2025-12-22T14:45:57.645269+00:00",
        "meta_object_name": "COSMOS 2527 (756)",
        "meta_object_id": "2018-053A",
        "meta_epoch": "2025-12-22T04:09:24.890400",
        "meta_mean_motion": 2.13102387,
        "meta_eccentricity": 0.0008916,
        "meta_inclination": 65.4774,
        "meta_ra_of_asc_node": 79.8162,
        "meta_arg_of_pericenter": 227.1268,
        "meta_mean_anomaly": 132.8398,
        "meta_ephemeris_type": 0,
        "meta_classification_type": "U",
        "meta_norad_cat_id": 43508,
        "meta_element_set_no": 999,
        "meta_rev_at_epoch": 5850,
        "meta_bstar": 0,
        "meta_mean_motion_dot": -3e-08,
        "meta_mean_motion_ddot": 0,
        "tle_line1": "1 43508U 18053A   25356.17320475 -.00000003  00000+0  00000+0 0  9999",
        "tle_line2": "2 43508  65.4774  79.8162 0008916 227.1268 132.8398  2.13102387 58509"
      },
      "geometry": {
        "type": "Point",
        "coordinates": [
          70.83621136499634,
          -18.90506563574005
        ]
      }
    },
    {
      "type": "Feature",
      "properties": {
        "norad_id": 43539,
        "name": "BEIDOU-2 IGSO-7 (C16)",
        "group": "gnss",
        "lat": -53.66165588839964,
        "lon": 55.92458957631489,
        "alt_km": 35439.11496306963,
        "timestamp": "2025-12-22T14:45:57.645281+00:00",
        "meta_object_name": "BEIDOU-2 IGSO-7 (C16)",
        "meta_object_id": "2018-057A",
        "meta_epoch": "2025-12-15T07:47:07.120608",
        "meta_mean_motion": 1.00256546,
        "meta_eccentricity": 0.00926218,
        "meta_inclination": 55.1766,
        "meta_ra_of_asc_node": 164.6485,
        "meta_arg_of_pericenter": 235.2644,
        "meta_mean_anomaly": 271.8458,
        "meta_ephemeris_type": 0,
        "meta_classification_type": "U",
        "meta_norad_cat_id": 43539,
        "meta_element_set_no": 999,
        "meta_rev_at_epoch": 2728,
        "meta_bstar": 0,
        "meta_mean_motion_dot": -2.3e-07,
        "meta_mean_motion_ddot": 0,
        "tle_line1": "1 43539U 18057A   25349.32438797 -.00000023  00000+0  00000+0 0  9995",
        "tle_line2": "2 43539  55.1766 164.6485 0092621 235.2644 271.8458  1.00256546 27289"
      },
      "geometry": {
        "type": "Point",
        "coordinates": [
          55.92458957631489,
          -53.66165588839964
        ]
      }
    },
    {
      "type": "Feature",
      "properties": {
        "norad_id": 43564,
        "name": "GSAT0221 (GALILEO 25)",
        "group": "gnss",
        "lat": 51.73412412525152,
        "lon": 41.30389733603166,
        "alt_km": 23231.951168421238,
        "timestamp": "2025-12-22T14:45:57.645296+00:00",
        "meta_object_name": "GSAT0221 (GALILEO 25)",
        "meta_object_id": "2018-060A",
        "meta_epoch": "2025-12-19T13:40:28.820064",
        "meta_mean_motion": 1.70475889,
        "meta_eccentricity": 0.0006721,
        "meta_inclination": 57.2264,
        "meta_ra_of_asc_node": 346.6332,
        "meta_arg_of_pericenter": 285.6827,
        "meta_mean_anomaly": 74.2548,
        "meta_ephemeris_type": 0,
        "meta_classification_type": "U",
        "meta_norad_cat_id": 43564,
        "meta_element_set_no": 999,
        "meta_rev_at_epoch": 4610,
        "meta_bstar": 0,
        "meta_mean_motion_dot": -7.2e-07,
        "meta_mean_motion_ddot": 0,
        "tle_line1": "1 43564U 18060A   25353.56977801 -.00000072  00000+0  00000+0 0  9996",
        "tle_line2": "2 43564  57.2264 346.6332 0006721 285.6827  74.2548  1.70475889 46101"
      },
      "geometry": {
        "type": "Point",
        "coordinates": [
          41.30389733603166,
          51.73412412525152
        ]
      }
    },
    {
      "type": "Feature",
      "properties": {
        "norad_id": 43565,
        "name": "GSAT0222 (GALILEO 26)",
        "group": "gnss",
        "lat": -49.942016533928296,
        "lon": -63.46525078436116,
        "alt_km": 23211.70418941101,
        "timestamp": "2025-12-22T14:45:57.645327+00:00",
        "meta_object_name": "GSAT0222 (GALILEO 26)",
        "meta_object_id": "2018-060B",
        "meta_epoch": "2025-12-20T23:05:42.344160",
        "meta_mean_motion": 1.70475571,
        "meta_eccentricity": 0.0006061,
        "meta_inclination": 57.2294,
        "meta_ra_of_asc_node": 346.5987,
        "meta_arg_of_pericenter": 266.4874,
        "meta_mean_anomaly": 93.4525,
        "meta_ephemeris_type": 0,
        "meta_classification_type": "U",
        "meta_norad_cat_id": 43565,
        "meta_element_set_no": 999,
        "meta_rev_at_epoch": 4617,
        "meta_bstar": 0,
        "meta_mean_motion_dot": -6.8e-07,
        "meta_mean_motion_ddot": 0,
        "tle_line1": "1 43565U 18060B   25354.96229565 -.00000068  00000+0  00000+0 0  9994",
        "tle_line2": "2 43565  57.2294 346.5987 0006061 266.4874  93.4525  1.70475571 46179"
      },
      "geometry": {
        "type": "Point",
        "coordinates": [
          -63.46525078436116,
          -49.942016533928296
        ]
      }
    },
    {
      "type": "Feature",
      "properties": {
        "norad_id": 43566,
        "name": "GSAT0219 (GALILEO 23)",
        "group": "gnss",
        "lat": 17.80134962857567,
        "lon": 154.60646643891494,
        "alt_km": 23231.394510381906,
        "timestamp": "2025-12-22T14:45:57.645340+00:00",
        "meta_object_name": "GSAT0219 (GALILEO 23)",
        "meta_object_id": "2018-060C",
        "meta_epoch": "2025-12-18T20:05:25.027008",
        "meta_mean_motion": 1.70475846,
        "meta_eccentricity": 0.00058667,
        "meta_inclination": 57.2292,
        "meta_ra_of_asc_node": 346.6575,
        "meta_arg_of_pericenter": 289.8664,
        "meta_mean_anomaly": 70.0835,
        "meta_ephemeris_type": 0,
        "meta_classification_type": "U",
        "meta_norad_cat_id": 43566,
        "meta_element_set_no": 999,
        "meta_rev_at_epoch": 4611,
        "meta_bstar": 0,
        "meta_mean_motion_dot": -7.4e-07,
        "meta_mean_motion_ddot": 0,
        "tle_line1": "1 43566U 18060C   25352.83709522 -.00000074  00000+0  00000+0 0  9992",
        "tle_line2": "2 43566  57.2292 346.6575 0005866 289.8664  70.0835  1.70475846 46114"
      },
      "geometry": {
        "type": "Point",
        "coordinates": [
          154.60646643891494,
          17.80134962857567
        ]
      }
    }
  ]
}